TIANGONG-2 
1 41765U 16057A   17009.47668499  .00007993  00000-0  84982-4 0  9995
2 41765  42.7829 223.3199 0007631 212.7827 220.5238 15.64393305 18158
